GLOBALSTAR M035         
1 25851U 99037A   24184.89102727 -.00000038  00000+0  96383-3 0  9997
2 25851  51.9943 113.9218 0013093 134.3405 304.6527 11.04530818 57667
GLOBALSTAR M032         
1 25852U 99037B   24184.71902740  .00000007  00000+0  23649-2 0  9991
2 25852  51.9973 323.6180 0009367 298.3967  61.5888 11.19057951 95661
GLOBALSTAR M030         
1 25854U 99037D   24184.82891613 -.00000040  00000+0  74948-3 0  9998
2 25854  51.9903 351.9914 0004363 135.6149 224.5018 11.55096495109670
GLOBALSTAR M048         
1 25872U 99041A   24184.92951035 -.00000082  00000+0 -31879-3 0  9992
2 25872  51.9378  84.9567 0013392 303.1602 139.7426 11.33846998 85367
GLOBALSTAR M026         
1 25873U 99041B   24184.58245043 -.00000094  00000+0 -10842-2 0  9999
2 25873  51.9981 236.2507 0001066  23.9121 147.0737 11.06834193109775
GLOBALSTAR M043         
1 25874U 99041C   24184.92628153 -.00000043  00000+0  76045-3 0  9996
2 25874  51.9361 178.6886 0012080  73.8646 297.3807 11.25680215 83549
GLOBALSTAR M028         
1 25875U 99041D   24184.88146352 -.00000073  00000+0  18108-3 0  9997
2 25875  51.9603 154.6135 0063706  32.8264 327.6531 12.50558772146476
